STARLINK-31542          
1 59194C 24045S   24295.10256944 -.00009505  00000+0 -22678-3 0  2953
2 59194  43.0031  75.6990 0001483 259.9245 157.3594 15.40709492    15
STARLINK-31554          
1 59195C 24045T   24295.10743056 -.00032697  00000+0 -78006-3 0  2953
2 59195  43.0033  74.8590 0001665 269.6270 150.5467 15.40733382    12
STARLINK-31558          
1 59196C 24045U   24295.10881944 -.00001124  00000+0 -26831-4 0  2954
2 59196  43.0032  75.6325 0001483 289.5242 174.8922 15.40696787    17
STARLINK-31275          
1 59197C 24045V   24295.10534722  .00000205  00000+0  48944-5 0  2951
2 59197  43.0034  75.2595 0001531 282.9800 323.9124 15.40683809    18
STARLINK-31590          
1 59198C 24045W   24295.10256944 -.00050475  00000+0 -12038-2 0  2957
2 59198  43.0031  75.0340 0001432 272.7065  58.2310 15.40761851    11
STARLINK-31567          
1 59199C 24045X   24295.10743056 -.00003840  00000+0 -91570-4 0  2957
2 59199  43.0035  75.4586 0001465 268.0688 263.2500 15.40720766    16
STARLINK-31503          
1 59200C 24045Y   24295.10326389 -.00045248  00000+0 -10792-2 0  2959
2 59200  43.0036  75.4218 0001503 269.7118 263.3709 15.40754405    10
STARLINK-31603          
1 59201C 24046A   24295.10465278 -.00009864  00000+0 -33234-3 0  2953
2 59201  53.1611 339.3792 0001275  90.3846 184.0124 15.30213141    19
STARLINK-31602          
1 59202C 24046B   24295.10326389 -.02281400  00000+0 -65071-1 0  2955
2 59202  53.1594 339.0263 0001340  81.1796   6.6645 15.37802169    13
STARLINK-31577          
1 59203C 24046C   24295.10743056  .00067675  00000+0  16880-2 0  2957
2 59203  53.1586 339.2655 0001971 109.0025 232.6996 15.39559780    17
STARLINK-31522          
1 59204C 24046D   24295.10673611 -.02309500  00000+0 -61517-1 0  2953
2 59204  53.1593 339.4215 0001543  99.8694 160.7130 15.39953543    19
STARLINK-31586          
1 59205C 24046E   24295.10673611  .00004844  00000+0  16320-3 0  2957
2 59205  53.1584 339.0689 0001309  86.7237 350.4058 15.30196037    14
STARLINK-31247          
1 59206C 24046F   24295.10673611  .00004715  00000+0  15886-3 0  2951
2 59206  53.1583 339.2171 0001386  95.7868 265.7191 15.30198231    11
STARLINK-31591          
1 59207C 24046G   24295.10881944 -.00009753  00000+0 -32861-3 0  2953
2 59207  53.1574 339.1280 0001306  99.9271 313.7713 15.30212226    13
STARLINK-31576          
1 59208C 24046H   24295.10673611 -.00055990  00000+0 -13963-2 0  2959
2 59208  53.1585 339.0601 0001475 116.1937 326.5015 15.39689051    10
STARLINK-31601          
1 59209C 24046J   24295.10812500  .00004964  00000+0  12379-3 0  2956
2 59209  53.1585 339.1586 0001258 112.5016 284.5343 15.39630955    17
STARLINK-31520          
1 59210C 24046K   24295.10743056 -.00005219  00000+0 -17583-3 0  2955
2 59210  53.1582 339.1788 0001230  98.8898 283.8888 15.30209637    10
STARLINK-31496          
1 59211C 24046L   24295.10395833  .00010935  00000+0  36843-3 0  2951
2 59211  53.1595 339.2971 0001452  90.8662 220.4386 15.30189540    17
STARLINK-31492          
1 59212C 24046M   24295.10673611  .00013368  00000+0  45048-3 0  2955
2 59212  53.1597 339.3849 0001327  92.4096 181.8760 15.30182212    10
STARLINK-31517          
1 59213C 24046N   24295.09909722 -.00977420  00000+0 -30385-1 0  2955
2 59213  53.1593 339.0841 0001870  71.5368 346.7116 15.33761169    13
STARLINK-31604          
1 59214C 24046P   24295.10673611  .00047316  00000+0  15944-2 0  2958
2 59214  53.1592 339.0314 0002029  82.6709  11.9256 15.30150262    16
STARLINK-31434          
1 59215C 24046Q   24295.10395833 -.00016285  00000+0 -40614-3 0  2952
2 59215  53.1587 339.2282 0001235 103.2927 244.8855 15.39648948    11
STARLINK-31417          
1 59216C 24046R   24295.10743056 -.02218300  00000+0 -71043-1 0  2959
2 59216  53.1596 339.3885 0001061  99.9489 178.0777 15.34074605    12
STARLINK-31499          
1 59217C 24046S   24295.10534722 -.00030996  00000+0 -77287-3 0  2957
2 59217  53.1585 339.0665 0001447 107.0501 326.0790 15.39669160    19
STARLINK-31421          
1 59218C 24046T   24295.10951389 -.00000389  00000+0 -13122-4 0  2952
2 59218  53.1583 339.1862 0001228  97.8667 290.5876 15.30200719    16
STARLINK-31518          
1 59219C 24046U   24295.10743056 -.02251500  00000+0 -59118-1 0  2950
2 59219  53.1589 339.0054 0001578  85.7109  24.6281 15.40335436    12
STARLINK-31523          
1 59220C 24046V   24295.10673611  .00011780  00000+0  39702-3 0  2950
2 59220  53.1579 339.0998 0001289  94.3298 325.3828 15.30180965    16
STARLINK-31516          
1 59221C 24046W   24295.10326389  .00006482  00000+0  16165-3 0  2959
2 59221  53.1584 339.1282 0001326 102.0937 293.7433 15.39628074    16
STARLINK-31490          
1 59222C 24046X   24295.10326389 -.00006615  00000+0 -22288-3 0  2953
2 59222  53.1600 339.3660 0001220  82.2157 190.3587 15.30206041    13
STARLINK-31420          
1 59223C 24046Y   24295.10534722 -.00002594  00000+0 -87406-4 0  2952
2 59223  53.1597 339.3224 0001348  95.4467 206.0526 15.30201979    19
STARLINK-31304          
1 59231C 24049A   24295.10534722 -.00018686  00000+0 -44582-3 0  2950
2 59231  43.0013 128.1554 0001661 265.0418  89.6595 15.40717644    11
STARLINK-31305          
1 59232C 24049B   24295.10395833  .00000740  00000+0  17655-4 0  2951
2 59232  43.0015 127.6646 0001681 262.0875 283.9535 15.40700951    12
STARLINK-31459          
1 59233C 24049C   24295.10743056 -.00007450  00000+0 -17778-3 0  2958
2 59233  43.0017 127.7042 0001681 265.1281 275.3173 15.40702663    16
STARLINK-31438          
1 59234C 24049D   24295.10604167 -.00026997  00000+0 -64417-3 0  2957
2 59234  43.0017 128.0437 0001483 270.9471 124.9341 15.40724045    18
STARLINK-31467          
1 59235C 24049E   24295.10812500 -.00016125  00000+0 -38474-3 0  2956
2 59235  43.0015 127.7305 0001801 265.9055 265.9505 15.40714190    11
STARLINK-31444          
1 59236C 24049F   24295.11506944  .00112640  00000+0  13046-2 0  2954
2 59236  43.0005 121.4284 0020033 290.9212 323.1762 15.60542511    19
STARLINK-31505          
1 59237C 24049G   24295.10326389 -.00011140  00000+0 -26569-3 0  2957
2 59237  43.0018 127.7080 0001976 267.8575 261.8896 15.40719419    14
STARLINK-31494          
1 59238C 24049H   24295.10812500  .00042160  00000+0  10054-2 0  2958
2 59238  43.0015 127.9108 0002014 280.4848 176.6546 15.40672375    17
STARLINK-31303          
1 59239C 24049J   24295.10256944 -.00024765  00000+0 -59086-3 0  2955
2 59239  43.0007 125.5592 0001441 269.4264  47.2805 15.40724385    12
STARLINK-31408          
1 59240C 24049K   24295.10395833 -.00007433  00000+0 -17732-3 0  2953
2 59240  43.0011 127.0367 0001619 259.2436 188.0234 15.40710615    12
STARLINK-31427          
1 59241C 24049L   24295.10465278 -.00020193  00000+0 -48178-3 0  2951
2 59241  43.0015 126.5822 0002029 270.4059 354.9184 15.40718553    16
STARLINK-31423          
1 59242C 24049M   24295.10673611  .00007095  00000+0  16919-3 0  2956
2 59242  43.0017 127.3747 0001987 267.5634  45.8049 15.40707347    17
STARLINK-31433          
1 59243C 24049N   24295.10395833 -.00007967  00000+0 -19008-3 0  2956
2 59243  43.0014 127.7826 0001677 263.3174 232.9535 15.40709133    10
STARLINK-31285          
1 59244C 24049P   24295.10534722 -.00008599  00000+0 -20510-3 0  2951
2 59244  43.0013 127.9555 0001617 268.7678 160.5979 15.40718282    16
STARLINK-31268          
1 59245C 24049Q   24295.10465278 -.00024721  00000+0 -58985-3 0  2953
2 59245  42.9994 121.8012 0002055 260.5908 172.2532 15.40721583    10
STARLINK-31284          
1 59246C 24049R   24295.10812500 -.00051593  00000+0 -12312-2 0  2958
2 59246  43.0015 127.7881 0001433 263.5552 243.4208 15.40745917    11
STARLINK-31424          
1 59247C 24049S   24295.10743056 -.00006690  00000+0 -15962-3 0  2951
2 59247  43.0008 127.9700 0001538 263.9550 164.5383 15.40703263    19
STARLINK-31405          
1 59248C 24049T   24295.10256944 -.00001545  00000+0 -36875-4 0  2958
2 59248  43.0012 127.5775 0001876 277.9311 297.7144 15.40694424    10
STARLINK-31426          
1 59249C 24049U   24295.10673611 -.00026305  00000+0 -62748-3 0  2951
2 59249  42.9998 127.4300 0002155 268.6579  19.8873 15.40730153    11
STARLINK-31407          
1 59250C 24049V   24295.10604167 -.00025141  00000+0 -60006-3 0  2955
2 59250  43.0016 128.0715 0001890 272.3333 111.1185 15.40712285    16
STARLINK-31418          
1 59251C 24049W   24295.11159722  .00043164  00000+0  10053-2 0  2958
2 59251  43.0011 127.3559 0002302 276.1423  59.4734 15.41380808    18
STARLINK-31393          
1 59252C 24049X   24295.10604167 -.00023509  00000+0 -56084-3 0  2954
2 59252  43.0018 126.7561 0001580 257.5411 313.2499 15.40726518    19
STARLINK-31425          
1 59253C 24049Y   24295.10951389 -.00013438  00000+0 -32061-3 0  2955
2 59253  43.0014 127.8091 0001885 270.7403 231.5168 15.40712716    12
STARLINK-31659          
1 59254C 24050A   24295.10465278 -.00003149  00000+0 -10609-3 0  2957
2 59254  53.1577   2.5805 0001238 100.5793 304.3819 15.30211011    18
STARLINK-31629          
1 59255C 24050B   24295.10881944 -.00018874  00000+0 -63570-3 0  2956
2 59255  53.1581   4.7754 0001636  76.0954 308.1782 15.30231444    12
STARLINK-31652          
1 59256C 24050C   24295.10326389  .00058474  00000+0  19715-2 0  2953
2 59256  53.1577   4.6657 0001248  92.8185 330.6851 15.30120766    11
STARLINK-31655          
1 59257C 24050D   24295.11437500  .00242810  00000+0  64034-2 0  2956
2 59257  53.1585 348.5883 0009157  42.9538 117.8812 15.37638816    16
STARLINK-31637          
1 59258C 24050E   24295.10187500  .00017550  00000+0  59138-3 0  2959
2 59258  53.1584   4.6033 0001211  93.5294 357.2094 15.30180795    10
STARLINK-31506          
1 59259C 24050F   24295.10881944  .00009046  00000+0  30476-3 0  2958
2 59259  53.1576   4.7408 0001320  99.6670 302.0956 15.30193959    16
STARLINK-31288          
1 59260C 24050G   24295.10326389  .00080890  00000+0  27298-2 0  2950
2 59260  53.1601   5.0138 0001349  98.3446 144.9099 15.30069550    19
